start=new Date('2022-05-14T00:00:00.000Z').valueOf();
sats=[{"CLASSIFICATION_TYPE":"U","DECAY_DATE":null,"REV_AT_EPOCH":"6622","OBJECT_TYPE":"PAYLOAD","ELEMENT_SET_NO":"999","MEAN_MOTION_DDOT":"0.0000000000000","COUNTRY_CODE":"US","SITE":"AFETR","PERIOD":"95.592","GP_ID":"203476782","EPOCH":"2022-05-13T21:49:23.685024","MEAN_ANOMALY":"303.4274","SEMIMAJOR_AXIS":"6925.339","INCLINATION":"53.0561","RCS_SIZE":"LARGE","NORAD_CAT_ID":"47845","ECCENTRICITY":"0.00018740","BSTAR":"-0.00010248000000","MEAN_MOTION":"15.06403169","OBJECT_NAME":"STARLINK-2453","OBJECT_ID":"2021-018BL","PERIAPSIS":"545.906","REF_FRAME":"TEME","TIME_SYSTEM":"UTC","LAUNCH_DATE":"2021-03-11","RA_OF_ASC_NODE":"37.5326","APOAPSIS":"548.502","EPHEMERIS_TYPE":"0","TLE_LINE1":"1 47845U 21018BL  22133.90930191 -.00001808  00000-0 -10248-3 0  9990","ARG_OF_PERICENTER":"56.6894","FILE":"3444395","TLE_LINE2":"2 47845  53.0561  37.5326 0001874  56.6894 303.4274 15.06403169 66228","MEAN_MOTION_DOT":"-0.00001808","CENTER_NAME":"EARTH","MEAN_ELEMENT_THEORY":"SGP4"},{"RCS_SIZE":"LARGE","INCLINATION":"53.0561","SEMIMAJOR_AXIS":"6925.312","MEAN_ANOMALY":"295.8885","EPOCH":"2022-05-13T21:44:05.119584","PERIOD":"95.591","GP_ID":"203477032","SITE":"AFETR","MEAN_MOTION_DDOT":"0.0000000000000","COUNTRY_CODE":"US","REV_AT_EPOCH":"6627","OBJECT_TYPE":"PAYLOAD","ELEMENT_SET_NO":"999","DECAY_DATE":null,"CLASSIFICATION_TYPE":"U","PERIAPSIS":"545.936","OBJECT_ID":"2021-018BM","OBJECT_NAME":"STARLINK-2456","MEAN_MOTION":"15.06411960","BSTAR":"0.00012099000000","ECCENTRICITY":"0.00017920","NORAD_CAT_ID":"47846","FILE":"3444395","TLE_LINE1":"1 47846U 21018BM  22133.90561481  .00001522  00000-0  12099-3 0  9990","EPHEMERIS_TYPE":"0","ARG_OF_PERICENTER":"64.2289","APOAPSIS":"548.418","RA_OF_ASC_NODE":"37.5469","TIME_SYSTEM":"UTC","LAUNCH_DATE":"2021-03-11","REF_FRAME":"TEME","MEAN_ELEMENT_THEORY":"SGP4","CENTER_NAME":"EARTH","MEAN_MOTION_DOT":"0.00001522","TLE_LINE2":"2 47846  53.0561  37.5469 0001792  64.2289 295.8885 15.06411960 66274"},{"BSTAR":"-0.00014834000000","ECCENTRICITY":"0.00018310","NORAD_CAT_ID":"47860","PERIAPSIS":"545.955","OBJECT_ID":"2021-021A","OBJECT_NAME":"STARLINK-2258","MEAN_MOTION":"15.06396925","SITE":"AFETR","PERIOD":"95.592","GP_ID":"203453747","COUNTRY_CODE":"US","MEAN_MOTION_DDOT":"0.0000000000000","REV_AT_EPOCH":"6517","OBJECT_TYPE":"PAYLOAD","ELEMENT_SET_NO":"999","CLASSIFICATION_TYPE":"U","DECAY_DATE":null,"RCS_SIZE":"LARGE","SEMIMAJOR_AXIS":"6925.358","INCLINATION":"53.0536","EPOCH":"2022-05-13T20:15:10.807776","MEAN_ANOMALY":"298.7742","CENTER_NAME":"EARTH","MEAN_MOTION_DOT":"-0.00002490","TLE_LINE2":"2 47860  53.0536  67.8161 0001831  61.3431 298.7742 15.06396925 65173","MEAN_ELEMENT_THEORY":"SGP4","RA_OF_ASC_NODE":"67.8161","REF_FRAME":"TEME","TIME_SYSTEM":"UTC","LAUNCH_DATE":"2021-03-14","FILE":"3444261","ARG_OF_PERICENTER":"61.3431","TLE_LINE1":"1 47860U 21021A   22133.84387509 -.00002490  00000-0 -14834-3 0  9996","EPHEMERIS_TYPE":"0","APOAPSIS":"548.491"},{"MEAN_MOTION":"15.06405589","OBJECT_NAME":"STARLINK-2280","OBJECT_ID":"2021-021B","PERIAPSIS":"545.969","ECCENTRICITY":"0.00017720","NORAD_CAT_ID":"47861","BSTAR":"0.00036085000000","EPOCH":"2022-05-13T22:16:36.783264","MEAN_ANOMALY":"280.6901","SEMIMAJOR_AXIS":"6925.331","INCLINATION":"53.0534","RCS_SIZE":"LARGE","CLASSIFICATION_TYPE":"U","DECAY_DATE":null,"OBJECT_TYPE":"PAYLOAD","REV_AT_EPOCH":"6589","ELEMENT_SET_NO":"999","MEAN_MOTION_DDOT":"0.0000000000000","COUNTRY_CODE":"US","SITE":"AFETR","PERIOD":"95.592","GP_ID":"203477283","MEAN_ELEMENT_THEORY":"SGP4","TLE_LINE2":"2 47861  53.0534  52.4359 0001772  79.4287 280.6901 15.06405589 65897","CENTER_NAME":"EARTH","MEAN_MOTION_DOT":"0.00005098","APOAPSIS":"548.424","TLE_LINE1":"1 47861U 21021B   22133.92820351  .00005098  00000-0  36085-3 0  9990","EPHEMERIS_TYPE":"0","ARG_OF_PERICENTER":"79.4287","FILE":"3444395","REF_FRAME":"TEME","TIME_SYSTEM":"UTC","LAUNCH_DATE":"2021-03-14","RA_OF_ASC_NODE":"52.4359"},{"SITE":"AFETR","GP_ID":"203477533","PERIOD":"95.592","COUNTRY_CODE":"US","MEAN_MOTION_DDOT":"0.0000000000000","OBJECT_TYPE":"PAYLOAD","ELEMENT_SET_NO":"999","REV_AT_EPOCH":"6595","CLASSIFICATION_TYPE":"U","DECAY_DATE":null,"RCS_SIZE":"LARGE","SEMIMAJOR_AXIS":"6925.324","INCLINATION":"53.0559","EPOCH":"2022-05-13T21:48:04.171104","MEAN_ANOMALY":"291.3472","BSTAR":"0.00014401000000","NORAD_CAT_ID":"47862","ECCENTRICITY":"0.00014800","PERIAPSIS":"546.164","OBJECT_NAME":"STARLINK-2291","OBJECT_ID":"2021-021C","MEAN_MOTION":"15.06408037","RA_OF_ASC_NODE":"47.5330","REF_FRAME":"TEME","TIME_SYSTEM":"UTC","LAUNCH_DATE":"2021-03-14","FILE":"3444395","TLE_LINE1":"1 47862U 21021C   22133.90838161  .00001865  00000-0  14401-3 0  9993","EPHEMERIS_TYPE":"0","ARG_OF_PERICENTER":"68.7675","APOAPSIS":"548.214","CENTER_NAME":"EARTH","MEAN_MOTION_DOT":"0.00001865","TLE_LINE2":"2 47862  53.0559  47.5330 0001480  68.7675 291.3472 15.06408037 65957","MEAN_ELEMENT_THEORY":"SGP4"},{"OBJECT_TYPE":"PAYLOAD","REV_AT_EPOCH":"6579","ELEMENT_SET_NO":"999","CLASSIFICATION_TYPE":"U","DECAY_DATE":null,"SITE":"AFETR","GP_ID":"203477785","PERIOD":"95.592","COUNTRY_CODE":"US","MEAN_MOTION_DDOT":"0.0000000000000","SEMIMAJOR_AXIS":"6925.337","INCLINATION":"53.0558","EPOCH":"2022-05-13T17:37:15.886560","MEAN_ANOMALY":"313.0427","RCS_SIZE":"LARGE","NORAD_CAT_ID":"47863","ECCENTRICITY":"0.00018900","BSTAR":"0.00006668500000","OBJECT_ID":"2021-021D","OBJECT_NAME":"STARLINK-2293","MEAN_MOTION":"15.06403753","PERIAPSIS":"545.893","REF_FRAME":"TEME","TIME_SYSTEM":"UTC","LAUNCH_DATE":"2021-03-14","RA_OF_ASC_NODE":"58.3217","APOAPSIS":"548.511","FILE":"3444395","TLE_LINE1":"1 47863U 21021D   22133.73421165  .00000712  00000-0  66685-4 0  9999","ARG_OF_PERICENTER":"47.0721","EPHEMERIS_TYPE":"0","TLE_LINE2":"2 47863  53.0558  58.3217 0001890  47.0721 313.0427 15.06403753 65792","CENTER_NAME":"EARTH","MEAN_MOTION_DOT":"0.00000712","MEAN_ELEMENT_THEORY":"SGP4"},{"OBJECT_NAME":"STARLINK-2304","OBJECT_ID":"2021-021E","MEAN_MOTION":"15.06390160","PERIAPSIS":"546.163","NORAD_CAT_ID":"47864","ECCENTRICITY":"0.00015610","BSTAR":"0.00002538100000","SEMIMAJOR_AXIS":"6925.379","INCLINATION":"53.0569","EPOCH":"2022-05-13T21:46:42.906720","MEAN_ANOMALY":"296.5636","RCS_SIZE":"LARGE","OBJECT_TYPE":"PAYLOAD","ELEMENT_SET_NO":"999","REV_AT_EPOCH":"6593","CLASSIFICATION_TYPE":"U","DECAY_DATE":null,"SITE":"AFETR","GP_ID":"203478035","PERIOD":"95.593","COUNTRY_CODE":"US","MEAN_MOTION_DDOT":"0.0000000000000","MEAN_ELEMENT_THEORY":"SGP4","TLE_LINE2":"2 47864  53.0569  47.5401 0001561  63.5513 296.5636 15.06390160 65937","CENTER_NAME":"EARTH","MEAN_MOTION_DOT":"0.00000096","APOAPSIS":"548.325","FILE":"3444395","ARG_OF_PERICENTER":"63.5513","TLE_LINE1":"1 47864U 21021E   22133.90744105  .00000096  00000-0  25381-4 0  9994","EPHEMERIS_TYPE":"0","REF_FRAME":"TEME","LAUNCH_DATE":"2021-03-14","TIME_SYSTEM":"UTC","RA_OF_ASC_NODE":"47.5401"},{"EPOCH":"2022-05-13T12:13:29.924832","MEAN_ANOMALY":"299.3537","SEMIMAJOR_AXIS":"6925.349","INCLINATION":"53.0571","RCS_SIZE":"LARGE","CLASSIFICATION_TYPE":"U","DECAY_DATE":null,"OBJECT_TYPE":"PAYLOAD","ELEMENT_SET_NO":"999","REV_AT_EPOCH":"6586","MEAN_MOTION_DDOT":"0.0000000000000","COUNTRY_CODE":"US","SITE":"AFETR","PERIOD":"95.592","GP_ID":"203442708","MEAN_MOTION":"15.06399905","OBJECT_ID":"2021-021F","OBJECT_NAME":"STARLINK-2310","PERIAPSIS":"546.030","NORAD_CAT_ID":"47865","ECCENTRICITY":"0.00017090","BSTAR":"0.00020590000000","APOAPSIS":"548.397","EPHEMERIS_TYPE":"0","TLE_LINE1":"1 47865U 21021F   22133.50937413  .00002787  00000-0  20590-3 0  9992","ARG_OF_PERICENTER":"60.7623","FILE":"3443851","REF_FRAME":"TEME","LAUNCH_DATE":"2021-03-14","TIME_SYSTEM":"UTC","RA_OF_ASC_NODE":"59.3087","MEAN_ELEMENT_THEORY":"SGP4","TLE_LINE2":"2 47865  53.0571  59.3087 0001709  60.7623 299.3537 15.06399905 65866","MEAN_MOTION_DOT":"0.00002787","CENTER_NAME":"EARTH"},{"OBJECT_NAME":"STARLINK-2320","OBJECT_ID":"2021-021G","MEAN_MOTION":"15.06395308","PERIAPSIS":"545.972","ECCENTRICITY":"0.00018140","NORAD_CAT_ID":"47866","BSTAR":"0.00006070900000","INCLINATION":"53.0545","SEMIMAJOR_AXIS":"6925.363","MEAN_ANOMALY":"312.5864","EPOCH":"2022-05-13T18:40:58.456704","RCS_SIZE":"LARGE","REV_AT_EPOCH":"6595","OBJECT_TYPE":"PAYLOAD","ELEMENT_SET_NO":"999","DECAY_DATE":null,"CLASSIFICATION_TYPE":"U","PERIOD":"95.592","GP_ID":"203477034","SITE":"AFETR","MEAN_MOTION_DDOT":"0.0000000000000","COUNTRY_CODE":"US","MEAN_ELEMENT_THEORY":"SGP4","TLE_LINE2":"2 47866  53.0545  58.1230 0001814  47.5278 312.5864 15.06395308 65955","MEAN_MOTION_DOT":"0.00000623","CENTER_NAME":"EARTH","APOAPSIS":"548.484","FILE":"3444395","EPHEMERIS_TYPE":"0","TLE_LINE1":"1 47866U 21021G   22133.77845436  .00000623  00000-0  60709-4 0  9999","ARG_OF_PERICENTER":"47.5278","LAUNCH_DATE":"2021-03-14","TIME_SYSTEM":"UTC","REF_FRAME":"TEME","RA_OF_ASC_NODE":"58.1230"},{"CENTER_NAME":"EARTH","MEAN_MOTION_DOT":"0.00000402","TLE_LINE2":"2 47867  53.0577  47.5390 0001844  61.9424 298.1751 15.06396639 65914","MEAN_ELEMENT_THEORY":"SGP4","RA_OF_ASC_NODE":"47.5390","LAUNCH_DATE":"2021-03-14","TIME_SYSTEM":"UTC","REF_FRAME":"TEME","TLE_LINE1":"1 47867U 21021H   22133.90469473  .00000402  00000-0  45904-4 0  9993","ARG_OF_PERICENTER":"61.9424","EPHEMERIS_TYPE":"0","FILE":"3444395","APOAPSIS":"548.501","BSTAR":"0.00004590400000","ECCENTRICITY":"0.00018440","NORAD_CAT_ID":"47867","PERIAPSIS":"545.947","MEAN_MOTION":"15.06396639","OBJECT_NAME":"STARLINK-2321","OBJECT_ID":"2021-021H","MEAN_MOTION_DDOT":"0.0000000000000","COUNTRY_CODE":"US","PERIOD":"95.592","GP_ID":"203478284","SITE":"AFETR","DECAY_DATE":null,"CLASSIFICATION_TYPE":"U","ELEMENT_SET_NO":"999","OBJECT_TYPE":"PAYLOAD","REV_AT_EPOCH":"6591","RCS_SIZE":"LARGE","MEAN_ANOMALY":"298.1751","EPOCH":"2022-05-13T21:42:45.624672","INCLINATION":"53.0577","SEMIMAJOR_AXIS":"6925.359"}];
